IRIDIUM 112             
1 41925U 17003J   25330.10715911  .00000320  00000+0  10734-3 0  9992
2 41925  86.3989 173.1577 0002050  81.9814 278.1614 14.34220232464168
IRIDIUM 111             
1 41926U 17003K   25330.02470915  .00000323  00000+0  10845-3 0  9992
2 41926  86.3993 173.2581 0001908  87.1755 272.9659 14.34218592464137
IRIDIUM 113             
1 42803U 17039A   25330.14420285  .00000195  00000+0  62687-4 0  9993
2 42803  86.3987  47.0313 0002059  92.1700 267.9732 14.34217826442085
IRIDIUM 123             
1 42804U 17039B   25329.83684521  .00000380  00000+0  12863-3 0  9999
2 42804  86.3962  78.6450 0001745 100.3250 259.8142 14.34220039440807
IRIDIUM 120             
1 42805U 17039C   25330.13786823  .00000407  00000+0  13836-3 0  9994
2 42805  86.3976  46.8428 0002264 105.5326 254.6120 14.34220328442074
IRIDIUM 115             
1 42806U 17039D   25330.18721721  .00000511  00000+0  14585-3 0  9994
2 42806  86.4514  46.9231 0001882 110.5147 249.6256 14.43284035444980
IRIDIUM 118             
1 42807U 17039E   25330.00810731  .00000386  00000+0  13069-3 0  9992
2 42807  86.3962  78.5724 0001978  91.2726 268.8697 14.34218024440825
IRIDIUM 117             
1 42808U 17039F   25330.02712289  .00000386  00000+0  13063-3 0  9998
2 42808  86.3962  78.5240 0001826  96.9451 263.1952 14.34220207440859
